SL-16 R/B               
1 22566U 93016B   26029.20063600  .00000327  00000+0  19206-3 0  9998
2 22566  71.0086 298.1234 0009555  10.9676 349.1654 14.15301031696582
COSMOS 2242             
1 22626U 93024A   26029.25192075  .00003654  00000+0  31957-3 0  9991
2 22626  82.5211 304.4314 0018012  78.6272 281.6972 14.96372608774494
SL-16 R/B               
1 22803U 93059B   26029.51598451 -.00000062  00000+0 -66606-5 0  9996
2 22803  70.9898  93.7404 0019575 269.8920  89.9960 14.17223123673988
ARIANE 40 R/B           
1 22830U 93061H   26028.75525090  .00000415  00000+0  16793-3 0  9993
2 22830  98.5001  98.4141 0011422  47.3505 312.8640 14.32838698688380
COSMOS 2278             
1 23087U 94023A   26028.92147028 -.00000142  00000+0 -49583-4 0  9990
2 23087  71.0519 258.3006 0006278  88.7316 271.4526 14.14366607639187
SL-16 R/B               
1 23088U 94023B   26029.48082820 -.00000206  00000+0 -81692-4 0  9999
2 23088  71.0005 153.2300 0004295 321.2380  38.8433 14.15005872640540
SL-16 R/B               
1 23343U 94074B   26028.95608844  .00000794  00000+0  11314-3 0  9993
2 23343  97.7158  61.3744 0006531   3.8838  62.1823 14.79357531681376
SL-16 R/B               
1 23405U 94077B   26029.47775443 -.00000203  00000+0 -79156-4 0  9999
2 23405  70.9822  74.9858 0004722 247.3437 112.7187 14.15558009610686
ARIANE 40+ R/B          
1 23561U 95021B   26029.47213836  .00000473  00000+0  16503-3 0  9998
2 23561  98.4577 101.4702 0005701 256.6893 113.9076 14.39741651613600
SL-16 R/B               
1 23705U 95058B   26028.98813506 -.00000062  00000+0 -75792-5 0  9996
2 23705  71.0194 263.6088 0012923 190.1911 169.8952 14.15487877562233
SL-16 R/B               
1 24298U 96051B   26028.93937556  .00000079  00000+0  69285-4 0  9990
2 24298  70.7570 259.3780 0018256 202.6730 157.3585 14.12404372516036
ORBVIEW 2 (SEASTAR)     
1 24883U 97037A   26029.45400002  .00000521  00000+0  19735-3 0  9990
2 24883  98.8500 192.7413 0002530 154.1579 205.9732 14.35462757502847
