CCSDS_OMM_VERS = 2.0
CREATION_DATE  = 
ORIGINATOR     = 

OBJECT_NAME    = SL-16 R/B
OBJECT_ID      = 1993-016B
CENTER_NAME    = EARTH
REF_FRAME      = TEME
TIME_SYSTEM    = UTC
MEAN_ELEMENT_THEORY = SGP/SGP4

EPOCH          = 2026-01-29T04:48:54.950400
MEAN_MOTION    = 14.15301031
ECCENTRICITY   = .0009555
INCLINATION    = 71.0086
RA_OF_ASC_NODE = 298.1234
ARG_OF_PERICENTER = 10.9676
MEAN_ANOMALY   = 349.1654

EPHEMERIS_TYPE = 0
CLASSIFICATION_TYPE = U
NORAD_CAT_ID   = 22566
ELEMENT_SET_NO = 999
REV_AT_EPOCH   = 69658
BSTAR          = .19206E-3
MEAN_MOTION_DOT = .327E-5
MEAN_MOTION_DDOT = 0

CCSDS_OMM_VERS = 2.0
CREATION_DATE  = 
ORIGINATOR     = 

OBJECT_NAME    = COSMOS 2242
OBJECT_ID      = 1993-024A
CENTER_NAME    = EARTH
REF_FRAME      = TEME
TIME_SYSTEM    = UTC
MEAN_ELEMENT_THEORY = SGP/SGP4

EPOCH          = 2026-01-29T06:02:45.952800
MEAN_MOTION    = 14.96372608
ECCENTRICITY   = .0018012
INCLINATION    = 82.5211
RA_OF_ASC_NODE = 304.4314
ARG_OF_PERICENTER = 78.6272
MEAN_ANOMALY   = 281.6972

EPHEMERIS_TYPE = 0
CLASSIFICATION_TYPE = U
NORAD_CAT_ID   = 22626
ELEMENT_SET_NO = 999
REV_AT_EPOCH   = 77449
BSTAR          = .31957E-3
MEAN_MOTION_DOT = .3654E-4
MEAN_MOTION_DDOT = 0

CCSDS_OMM_VERS = 2.0
CREATION_DATE  = 
ORIGINATOR     = 

OBJECT_NAME    = SL-16 R/B
OBJECT_ID      = 1993-059B
CENTER_NAME    = EARTH
REF_FRAME      = TEME
TIME_SYSTEM    = UTC
MEAN_ELEMENT_THEORY = SGP/SGP4

EPOCH          = 2026-01-29T12:23:01.061664
MEAN_MOTION    = 14.17223123
ECCENTRICITY   = .0019575
INCLINATION    = 70.9898
RA_OF_ASC_NODE = 93.7404
ARG_OF_PERICENTER = 269.8920
MEAN_ANOMALY   = 89.9960

EPHEMERIS_TYPE = 0
CLASSIFICATION_TYPE = U
NORAD_CAT_ID   = 22803
ELEMENT_SET_NO = 999
REV_AT_EPOCH   = 67398
BSTAR          = -.66606E-5
MEAN_MOTION_DOT = -.62E-6
MEAN_MOTION_DDOT = 0

CCSDS_OMM_VERS = 2.0
CREATION_DATE  = 
ORIGINATOR     = 

OBJECT_NAME    = ARIANE 40 R/B
OBJECT_ID      = 1993-061H
CENTER_NAME    = EARTH
REF_FRAME      = TEME
TIME_SYSTEM    = UTC
MEAN_ELEMENT_THEORY = SGP/SGP4

EPOCH          = 2026-01-28T18:07:33.677760
MEAN_MOTION    = 14.32838698
ECCENTRICITY   = .00114227
INCLINATION    = 98.5001
RA_OF_ASC_NODE = 98.4141
ARG_OF_PERICENTER = 47.3505
MEAN_ANOMALY   = 312.8640

EPHEMERIS_TYPE = 0
CLASSIFICATION_TYPE = U
NORAD_CAT_ID   = 22830
ELEMENT_SET_NO = 999
REV_AT_EPOCH   = 68838
BSTAR          = .16793253E-3
MEAN_MOTION_DOT = .415E-5
MEAN_MOTION_DDOT = 0

CCSDS_OMM_VERS = 2.0
CREATION_DATE  = 
ORIGINATOR     = 

OBJECT_NAME    = COSMOS 2278
OBJECT_ID      = 1994-023A
CENTER_NAME    = EARTH
REF_FRAME      = TEME
TIME_SYSTEM    = UTC
MEAN_ELEMENT_THEORY = SGP/SGP4

EPOCH          = 2026-01-28T22:06:55.032192
MEAN_MOTION    = 14.14366607
ECCENTRICITY   = .00062786
INCLINATION    = 71.0519
RA_OF_ASC_NODE = 258.3006
ARG_OF_PERICENTER = 88.7316
MEAN_ANOMALY   = 271.4526

EPHEMERIS_TYPE = 0
CLASSIFICATION_TYPE = U
NORAD_CAT_ID   = 23087
ELEMENT_SET_NO = 999
REV_AT_EPOCH   = 63918
BSTAR          = -.49582808E-4
MEAN_MOTION_DOT = -.142E-5
MEAN_MOTION_DDOT = 0

CCSDS_OMM_VERS = 2.0
CREATION_DATE  = 
ORIGINATOR     = 

OBJECT_NAME    = SL-16 R/B
OBJECT_ID      = 1994-023B
CENTER_NAME    = EARTH
REF_FRAME      = TEME
TIME_SYSTEM    = UTC
MEAN_ELEMENT_THEORY = SGP/SGP4

EPOCH          = 2026-01-29T11:32:23.556480
MEAN_MOTION    = 14.15005872
ECCENTRICITY   = .0004295
INCLINATION    = 71.0005
RA_OF_ASC_NODE = 153.2300
ARG_OF_PERICENTER = 321.2380
MEAN_ANOMALY   = 38.8433

EPHEMERIS_TYPE = 0
CLASSIFICATION_TYPE = U
NORAD_CAT_ID   = 23088
ELEMENT_SET_NO = 999
REV_AT_EPOCH   = 64054
BSTAR          = -.81692E-4
MEAN_MOTION_DOT = -.206E-5
MEAN_MOTION_DDOT = 0

CCSDS_OMM_VERS = 2.0
CREATION_DATE  = 
ORIGINATOR     = 

OBJECT_NAME    = SL-16 R/B
OBJECT_ID      = 1994-074B
CENTER_NAME    = EARTH
REF_FRAME      = TEME
TIME_SYSTEM    = UTC
MEAN_ELEMENT_THEORY = SGP/SGP4

EPOCH          = 2026-01-28T22:56:46.041216
MEAN_MOTION    = 14.79357531
ECCENTRICITY   = .00065316
INCLINATION    = 97.7158
RA_OF_ASC_NODE = 61.3744
ARG_OF_PERICENTER = 3.8838
MEAN_ANOMALY   = 62.1823

EPHEMERIS_TYPE = 0
CLASSIFICATION_TYPE = U
NORAD_CAT_ID   = 23343
ELEMENT_SET_NO = 999
REV_AT_EPOCH   = 68137
BSTAR          = .11314378E-3
MEAN_MOTION_DOT = .794E-5
MEAN_MOTION_DDOT = 0

CCSDS_OMM_VERS = 2.0
CREATION_DATE  = 
ORIGINATOR     = 

OBJECT_NAME    = SL-16 R/B
OBJECT_ID      = 1994-077B
CENTER_NAME    = EARTH
REF_FRAME      = TEME
TIME_SYSTEM    = UTC
MEAN_ELEMENT_THEORY = SGP/SGP4

EPOCH          = 2026-01-29T11:27:57.982752
MEAN_MOTION    = 14.15558009
ECCENTRICITY   = .0004722
INCLINATION    = 70.9822
RA_OF_ASC_NODE = 74.9858
ARG_OF_PERICENTER = 247.3437
MEAN_ANOMALY   = 112.7187

EPHEMERIS_TYPE = 0
CLASSIFICATION_TYPE = U
NORAD_CAT_ID   = 23405
ELEMENT_SET_NO = 999
REV_AT_EPOCH   = 61068
BSTAR          = -.79156E-4
MEAN_MOTION_DOT = -.203E-5
MEAN_MOTION_DDOT = 0

CCSDS_OMM_VERS = 2.0
CREATION_DATE  = 
ORIGINATOR     = 

OBJECT_NAME    = ARIANE 40+ R/B
OBJECT_ID      = 1995-021B
CENTER_NAME    = EARTH
REF_FRAME      = TEME
TIME_SYSTEM    = UTC
MEAN_ELEMENT_THEORY = SGP/SGP4

EPOCH          = 2026-01-29T11:19:52.754304
MEAN_MOTION    = 14.39741651
ECCENTRICITY   = .0005701
INCLINATION    = 98.4577
RA_OF_ASC_NODE = 101.4702
ARG_OF_PERICENTER = 256.6893
MEAN_ANOMALY   = 113.9076

EPHEMERIS_TYPE = 0
CLASSIFICATION_TYPE = U
NORAD_CAT_ID   = 23561
ELEMENT_SET_NO = 999
REV_AT_EPOCH   = 61360
BSTAR          = .16503E-3
MEAN_MOTION_DOT = .473E-5
MEAN_MOTION_DDOT = 0

CCSDS_OMM_VERS = 2.0
CREATION_DATE  = 
ORIGINATOR     = 

OBJECT_NAME    = SL-16 R/B
OBJECT_ID      = 1995-058B
CENTER_NAME    = EARTH
REF_FRAME      = TEME
TIME_SYSTEM    = UTC
MEAN_ELEMENT_THEORY = SGP/SGP4

EPOCH          = 2026-01-28T23:42:54.869184
MEAN_MOTION    = 14.15487877
ECCENTRICITY   = .00129231
INCLINATION    = 71.0194
RA_OF_ASC_NODE = 263.6088
ARG_OF_PERICENTER = 190.1911
MEAN_ANOMALY   = 169.8952

EPHEMERIS_TYPE = 0
CLASSIFICATION_TYPE = U
NORAD_CAT_ID   = 23705
ELEMENT_SET_NO = 999
REV_AT_EPOCH   = 56223
BSTAR          = -.7579182E-5
MEAN_MOTION_DOT = -.62E-6
MEAN_MOTION_DDOT = 0

CCSDS_OMM_VERS = 2.0
CREATION_DATE  = 
ORIGINATOR     = 

OBJECT_NAME    = SL-16 R/B
OBJECT_ID      = 1996-051B
CENTER_NAME    = EARTH
REF_FRAME      = TEME
TIME_SYSTEM    = UTC
MEAN_ELEMENT_THEORY = SGP/SGP4

EPOCH          = 2026-01-28T22:32:42.048384
MEAN_MOTION    = 14.12404372
ECCENTRICITY   = .00182566
INCLINATION    = 70.7570
RA_OF_ASC_NODE = 259.3780
ARG_OF_PERICENTER = 202.6730
MEAN_ANOMALY   = 157.3585

EPHEMERIS_TYPE = 0
CLASSIFICATION_TYPE = U
NORAD_CAT_ID   = 24298
ELEMENT_SET_NO = 999
REV_AT_EPOCH   = 51603
BSTAR          = .69285029E-4
MEAN_MOTION_DOT = .79E-6
MEAN_MOTION_DDOT = 0

CCSDS_OMM_VERS = 2.0
CREATION_DATE  = 
ORIGINATOR     = 

OBJECT_NAME    = ORBVIEW 2 (SEASTAR)
OBJECT_ID      = 1997-037A
CENTER_NAME    = EARTH
REF_FRAME      = TEME
TIME_SYSTEM    = UTC
MEAN_ELEMENT_THEORY = SGP/SGP4

EPOCH          = 2026-01-29T10:53:45.601728
MEAN_MOTION    = 14.35462757
ECCENTRICITY   = .000253
INCLINATION    = 98.8500
RA_OF_ASC_NODE = 192.7413
ARG_OF_PERICENTER = 154.1579
MEAN_ANOMALY   = 205.9732

EPHEMERIS_TYPE = 0
CLASSIFICATION_TYPE = U
NORAD_CAT_ID   = 24883
ELEMENT_SET_NO = 999
REV_AT_EPOCH   = 50284
BSTAR          = .19735E-3
MEAN_MOTION_DOT = .521E-5
MEAN_MOTION_DDOT = 0

